{
    "links": {
        "self": "http://www.neowsapp.com/rest/v1/neo/3623954?api_key=iIulBulltgU6a56xZRHN4H3l9WmuAYTsLGpBGhQ2"
    },
    "id": "3623954",
    "neo_reference_id": "3623954",
    "name": "(2013 AX60)",
    "designation": "2013 AX60",
    "nasa_jpl_url": "http://ssd.jpl.nasa.gov/sbdb.cgi?sstr=3623954",
    "absolute_magnitude_h": 20.7,
    "estimated_diameter": {
        "kilometers": {
            "estimated_diameter_min": 0.1925550782,
            "estimated_diameter_max": 0.4305662442
        },
        "meters": {
            "estimated_diameter_min": 192.5550781879,
            "estimated_diameter_max": 430.566244241
        },
        "miles": {
            "estimated_diameter_min": 0.1196481415,
            "estimated_diameter_max": 0.2675413778
        },
        "feet": {
            "estimated_diameter_min": 631.7424027221,
            "estimated_diameter_max": 1412.6189567557
        }
    },
    "is_potentially_hazardous_asteroid": false,
    "close_approach_data": [
        {
            "close_approach_date": "2012-12-11",
            "close_approach_date_full": "2012-Dec-11 23:47",
            "epoch_date_close_approach": 1355269620000,
            "relative_velocity": {
                "kilometers_per_second": "18.6470216701",
                "kilometers_per_hour": "67129.2780122614",
                "miles_per_hour": "41711.5227737854"
            },
            "miss_distance": {
                "astronomical": "0.1969172164",
                "lunar": "76.6007971796",
                "kilometers": "29458396.139769068",
                "miles": "18304598.5657384184"
            },
            "orbiting_body": "Earth"
        }
    ],
    "orbital_data": {
        "orbit_id": "6",
        "orbit_determination_date": "2017-04-06 08:47:16",
        "first_observation_date": "2013-01-10",
        "last_observation_date": "2013-01-15",
        "data_arc_in_days": 5,
        "observations_used": 28,
        "orbit_uncertainty": "9",
        "minimum_orbit_intersection": ".130699",
        "jupiter_tisserand_invariant": "4.378",
        "epoch_osculation": "2456303.5",
        "eccentricity": ".3869107175038015",
        "semi_major_axis": "1.495990113409041",
        "inclination": "24.45681534867492",
        "ascending_node_longitude": "86.12099615468703",
        "orbital_period": "668.3308553170206",
        "perihelion_distance": ".9171755052513554",
        "perihelion_argument": "285.0823414999372",
        "aphelion_distance": "2.074804721566727",
        "perihelion_time": "2456223.350769357917",
        "mean_anomaly": "43.17281298865546",
        "mean_motion": ".5386553637857033",
        "equinox": "J2000",
        "orbit_class": {
            "orbit_class_type": "APO",
            "orbit_class_description": "Near-Earth asteroid orbits which cross the Earth’s orbit similar to that of 1862 Apollo",
            "orbit_class_range": "a (semi-major axis) > 1.0 AU; q (perihelion) < 1.017 AU"
        }
    },
    "is_sentry_object": false
}